[
  {
    "OBJECT_NAME": "STARLINK-2228",
    "OBJECT_ID": "21041Z",
    "EPOCH": "2025-11-11T06:58:17.036544",
    "MEAN_MOTION": 15.0634131,
    "ECCENTRICITY": 0.0001859,
    "INCLINATION": 53.0541,
    "RA_OF_ASC_NODE": 278.1316,
    "ARG_OF_PERICENTER": 77.3966,
    "MEAN_ANOMALY": 282.7231,
    "EPHEMERIS_TYPE": 0,
    "CLASSIFICATION_TYPE": "U",
    "NORAD_CAT_ID": 48576,
    "ELEMENT_SET_NO": 999,
    "REV_AT_EPOCH": 24771,
    "BSTAR": 0.0,
    "MEAN_MOTION_DOT": -0.00019643,
    "MEAN_MOTION_DDOT": 0.0,
    "TLE_LINE1": "1 48576U 21041Z   25315.29047496 -.00019643  00000+0 -13055-2 0  9995",
    "TLE_LINE2": "2 48576  53.0541 278.1316 0001859  77.3966 282.7231 15.06341310247719",
    "COMMENT": "Grouped by shell and plane from TLE"
  },
  {
    "OBJECT_NAME": "STARLINK-2234",
    "OBJECT_ID": "21041AD",
    "EPOCH": "2025-11-11T06:05:11.548896",
    "MEAN_MOTION": 15.06407066,
    "ECCENTRICITY": 0.0001319,
    "INCLINATION": 53.0553,
    "RA_OF_ASC_NODE": 278.307,
    "ARG_OF_PERICENTER": 97.9775,
    "MEAN_ANOMALY": 262.1364,
    "EPHEMERIS_TYPE": 0,
    "CLASSIFICATION_TYPE": "U",
    "NORAD_CAT_ID": 48580,
    "ELEMENT_SET_NO": 999,
    "REV_AT_EPOCH": 24770,
    "BSTAR": 0.00015529,
    "MEAN_MOTION_DOT": 2.033e-05,
    "MEAN_MOTION_DDOT": 0.0,
    "TLE_LINE1": "1 48580U 21041AD  25315.25360589  .00002033  00000+0  15529-3 0  9999",
    "TLE_LINE2": "2 48580  53.0553 278.3070 0001319  97.9775 262.1364 15.06407066247702",
    "COMMENT": "Grouped by shell and plane from TLE"
  },
  {
    "OBJECT_NAME": "STARLINK-3782",
    "OBJECT_ID": "22041N",
    "EPOCH": "2025-11-11T06:48:53.805312",
    "MEAN_MOTION": 15.08839177,
    "ECCENTRICITY": 0.0001369,
    "INCLINATION": 53.217,
    "RA_OF_ASC_NODE": 271.0483,
    "ARG_OF_PERICENTER": 137.1565,
    "MEAN_ANOMALY": 222.9534,
    "EPHEMERIS_TYPE": 0,
    "CLASSIFICATION_TYPE": "U",
    "NORAD_CAT_ID": 52273,
    "ELEMENT_SET_NO": 999,
    "REV_AT_EPOCH": 19662,
    "BSTAR": 0.0,
    "MEAN_MOTION_DOT": -1.252e-05,
    "MEAN_MOTION_DDOT": 0.0,
    "TLE_LINE1": "1 52273U 22041N   25315.28395608 -.00001252  00000+0 -60581-4 0  9990",
    "TLE_LINE2": "2 52273  53.2170 271.0483 0001369 137.1565 222.9534 15.08839177196621",
    "COMMENT": "Grouped by shell and plane from TLE"
  },
  {
    "OBJECT_NAME": "STARLINK-3783",
    "OBJECT_ID": "22041X",
    "EPOCH": "2025-11-11T06:42:08.863200",
    "MEAN_MOTION": 15.08854014,
    "ECCENTRICITY": 0.0001644,
    "INCLINATION": 53.2174,
    "RA_OF_ASC_NODE": 270.686,
    "ARG_OF_PERICENTER": 87.9973,
    "MEAN_ANOMALY": 272.1207,
    "EPHEMERIS_TYPE": 0,
    "CLASSIFICATION_TYPE": "U",
    "NORAD_CAT_ID": 52282,
    "ELEMENT_SET_NO": 999,
    "REV_AT_EPOCH": 19662,
    "BSTAR": 0.00020416000000000002,
    "MEAN_MOTION_DOT": 2.964e-05,
    "MEAN_MOTION_DDOT": 0.0,
    "TLE_LINE1": "1 52282U 22041X   25315.27926925  .00002964  00000+0  20416-3 0  9992",
    "TLE_LINE2": "2 52282  53.2174 270.6860 0001644  87.9973 272.1207 15.08854014196621",
    "COMMENT": "Grouped by shell and plane from TLE"
  },
  {
    "OBJECT_NAME": "STARLINK-3561",
    "OBJECT_ID": "22041Z",
    "EPOCH": "2025-11-11T06:31:33.208896",
    "MEAN_MOTION": 15.0884866,
    "ECCENTRICITY": 0.0001404,
    "INCLINATION": 53.217,
    "RA_OF_ASC_NODE": 270.7171,
    "ARG_OF_PERICENTER": 91.2371,
    "MEAN_ANOMALY": 268.8782,
    "EPHEMERIS_TYPE": 0,
    "CLASSIFICATION_TYPE": "U",
    "NORAD_CAT_ID": 52284,
    "ELEMENT_SET_NO": 999,
    "REV_AT_EPOCH": 19662,
    "BSTAR": 0.00015355,
    "MEAN_MOTION_DOT": 2.157e-05,
    "MEAN_MOTION_DDOT": 0.0,
    "TLE_LINE1": "1 52284U 22041Z   25315.27191214  .00002157  00000+0  15355-3 0  9999",
    "TLE_LINE2": "2 52284  53.2170 270.7171 0001404  91.2371 268.8782 15.08848660196629",
    "COMMENT": "Grouped by shell and plane from TLE"
  },
  {
    "OBJECT_NAME": "STARLINK-3802",
    "OBJECT_ID": "22041AB",
    "EPOCH": "2025-11-11T04:45:34.689888",
    "MEAN_MOTION": 15.08844224,
    "ECCENTRICITY": 0.0001435,
    "INCLINATION": 53.2181,
    "RA_OF_ASC_NODE": 271.0498,
    "ARG_OF_PERICENTER": 88.7894,
    "MEAN_ANOMALY": 271.3263,
    "EPHEMERIS_TYPE": 0,
    "CLASSIFICATION_TYPE": "U",
    "NORAD_CAT_ID": 52286,
    "ELEMENT_SET_NO": 999,
    "REV_AT_EPOCH": 19661,
    "BSTAR": 0.00011251,
    "MEAN_MOTION_DOT": 1.503e-05,
    "MEAN_MOTION_DDOT": 0.0,
    "TLE_LINE1": "1 52286U 22041AB  25315.19831817  .00001503  00000+0  11251-3 0  9997",
    "TLE_LINE2": "2 52286  53.2181 271.0498 0001435  88.7894 271.3263 15.08844224196618",
    "COMMENT": "Grouped by shell and plane from TLE"
  },
  {
    "OBJECT_NAME": "STARLINK-3776",
    "OBJECT_ID": "22041AD",
    "EPOCH": "2025-11-11T04:40:17.004864",
    "MEAN_MOTION": 15.0883622,
    "ECCENTRICITY": 0.0001425,
    "INCLINATION": 53.2179,
    "RA_OF_ASC_NODE": 271.0637,
    "ARG_OF_PERICENTER": 88.5393,
    "MEAN_ANOMALY": 271.5763,
    "EPHEMERIS_TYPE": 0,
    "CLASSIFICATION_TYPE": "U",
    "NORAD_CAT_ID": 52288,
    "ELEMENT_SET_NO": 999,
    "REV_AT_EPOCH": 19661,
    "BSTAR": 8.196700000000001e-05,
    "MEAN_MOTION_DOT": 1.017e-05,
    "MEAN_MOTION_DDOT": 0.0,
    "TLE_LINE1": "1 52288U 22041AD  25315.19464126  .00001017  00000+0  81967-4 0  9996",
    "TLE_LINE2": "2 52288  53.2179 271.0637 0001425  88.5393 271.5763 15.08836220196617",
    "COMMENT": "Grouped by shell and plane from TLE"
  },
  {
    "OBJECT_NAME": "STARLINK-3751",
    "OBJECT_ID": "22041AE",
    "EPOCH": "2025-11-11T06:36:51.714720",
    "MEAN_MOTION": 15.08842954,
    "ECCENTRICITY": 0.0001354,
    "INCLINATION": 53.2162,
    "RA_OF_ASC_NODE": 270.7003,
    "ARG_OF_PERICENTER": 80.6044,
    "MEAN_ANOMALY": 279.5101,
    "EPHEMERIS_TYPE": 0,
    "CLASSIFICATION_TYPE": "U",
    "NORAD_CAT_ID": 52289,
    "ELEMENT_SET_NO": 999,
    "REV_AT_EPOCH": 19662,
    "BSTAR": 0.00017685999999999998,
    "MEAN_MOTION_DOT": 2.528e-05,
    "MEAN_MOTION_DDOT": 0.0,
    "TLE_LINE1": "1 52289U 22041AE  25315.27559855  .00002528  00000+0  17686-3 0  9994",
    "TLE_LINE2": "2 52289  53.2162 270.7003 0001354  80.6044 279.5101 15.08842954196626",
    "COMMENT": "Grouped by shell and plane from TLE"
  },
  {
    "OBJECT_NAME": "STARLINK-3772",
    "OBJECT_ID": "22041AF",
    "EPOCH": "2025-11-11T04:25:45.863040",
    "MEAN_MOTION": 15.08837476,
    "ECCENTRICITY": 0.0001305,
    "INCLINATION": 53.217,
    "RA_OF_ASC_NODE": 271.1101,
    "ARG_OF_PERICENTER": 99.6932,
    "MEAN_ANOMALY": 260.4208,
    "EPHEMERIS_TYPE": 0,
    "CLASSIFICATION_TYPE": "U",
    "NORAD_CAT_ID": 52290,
    "ELEMENT_SET_NO": 999,
    "REV_AT_EPOCH": 19661,
    "BSTAR": 0.00028648000000000004,
    "MEAN_MOTION_DOT": 4.274e-05,
    "MEAN_MOTION_DDOT": 0.0,
    "TLE_LINE1": "1 52290U 22041AF  25315.18455860  .00004274  00000+0  28648-3 0  9997",
    "TLE_LINE2": "2 52290  53.2170 271.1101 0001305  99.6932 260.4208 15.08837476196612",
    "COMMENT": "Grouped by shell and plane from TLE"
  },
  {
    "OBJECT_NAME": "STARLINK-3753",
    "OBJECT_ID": "22041AH",
    "EPOCH": "2025-11-11T04:19:04.603296",
    "MEAN_MOTION": 15.08841258,
    "ECCENTRICITY": 0.0001406,
    "INCLINATION": 53.2173,
    "RA_OF_ASC_NODE": 271.127,
    "ARG_OF_PERICENTER": 92.7585,
    "MEAN_ANOMALY": 267.3568,
    "EPHEMERIS_TYPE": 0,
    "CLASSIFICATION_TYPE": "U",
    "NORAD_CAT_ID": 52292,
    "ELEMENT_SET_NO": 999,
    "REV_AT_EPOCH": 19661,
    "BSTAR": 0.00013834,
    "MEAN_MOTION_DOT": 1.914e-05,
    "MEAN_MOTION_DDOT": 0.0,
    "TLE_LINE1": "1 52292U 22041AH  25315.17991439  .00001914  00000+0  13834-3 0  9994",
    "TLE_LINE2": "2 52292  53.2173 271.1270 0001406  92.7585 267.3568 15.08841258196612",
    "COMMENT": "Grouped by shell and plane from TLE"
  },
  {
    "OBJECT_NAME": "STARLINK-3771",
    "OBJECT_ID": "22041AJ",
    "EPOCH": "2025-11-11T04:36:22.574880",
    "MEAN_MOTION": 15.08821246,
    "ECCENTRICITY": 0.0001494,
    "INCLINATION": 53.2184,
    "RA_OF_ASC_NODE": 271.0881,
    "ARG_OF_PERICENTER": 85.9358,
    "MEAN_ANOMALY": 274.1805,
    "EPHEMERIS_TYPE": 0,
    "CLASSIFICATION_TYPE": "U",
    "NORAD_CAT_ID": 52293,
    "ELEMENT_SET_NO": 999,
    "REV_AT_EPOCH": 19661,
    "BSTAR": 0.0,
    "MEAN_MOTION_DOT": -2.192e-05,
    "MEAN_MOTION_DDOT": 0.0,
    "TLE_LINE1": "1 52293U 22041AJ  25315.19192795 -.00002192  00000+0 -11973-3 0  9998",
    "TLE_LINE2": "2 52293  53.2184 271.0881 0001494  85.9358 274.1805 15.08821246196616",
    "COMMENT": "Grouped by shell and plane from TLE"
  },
  {
    "OBJECT_NAME": "STARLINK-3777",
    "OBJECT_ID": "22041AK",
    "EPOCH": "2025-11-11T04:13:49.743552",
    "MEAN_MOTION": 15.0879784,
    "ECCENTRICITY": 0.0001371,
    "INCLINATION": 53.217,
    "RA_OF_ASC_NODE": 271.1429,
    "ARG_OF_PERICENTER": 90.0297,
    "MEAN_ANOMALY": 270.0852,
    "EPHEMERIS_TYPE": 0,
    "CLASSIFICATION_TYPE": "U",
    "NORAD_CAT_ID": 52294,
    "ELEMENT_SET_NO": 999,
    "REV_AT_EPOCH": 19661,
    "BSTAR": 0.0,
    "MEAN_MOTION_DOT": -5.405e-05,
    "MEAN_MOTION_DDOT": 0.0,
    "TLE_LINE1": "1 52294U 22041AK  25315.17627018 -.00005405  00000+0 -32215-3 0  9990",
    "TLE_LINE2": "2 52294  53.2170 271.1429 0001371  90.0297 270.0852 15.08797840196613",
    "COMMENT": "Grouped by shell and plane from TLE"
  },
  {
    "OBJECT_NAME": "STARLINK-3765",
    "OBJECT_ID": "22041AL",
    "EPOCH": "2025-11-11T04:29:40.747488",
    "MEAN_MOTION": 15.08838416,
    "ECCENTRICITY": 0.000134,
    "INCLINATION": 53.2197,
    "RA_OF_ASC_NODE": 271.099,
    "ARG_OF_PERICENTER": 98.8981,
    "MEAN_ANOMALY": 261.2163,
    "EPHEMERIS_TYPE": 0,
    "CLASSIFICATION_TYPE": "U",
    "NORAD_CAT_ID": 52295,
    "ELEMENT_SET_NO": 999,
    "REV_AT_EPOCH": 19661,
    "BSTAR": 9.8288e-05,
    "MEAN_MOTION_DOT": 1.277e-05,
    "MEAN_MOTION_DDOT": 0.0,
    "TLE_LINE1": "1 52295U 22041AL  25315.18727717  .00001277  00000+0  98288-4 0  9993",
    "TLE_LINE2": "2 52295  53.2197 271.0990 0001340  98.8981 261.2163 15.08838416196619",
    "COMMENT": "Grouped by shell and plane from TLE"
  }
]